stk.v.4.3 

BEGIN Ephemeris 
 
NumberOfEphemerisPoints		146 
ScenarioEpoch	    2 Jan 2020 11:46: 9.650208950 
InterpolationMethod		Lagrange 
InterpolationOrder		5 
CentralBody				Earth 
CoordinateSystem			TEME 
CoordinateSystemEpoch	  2 Jan 2020 11:46: 9.650208950 
DistanceUnit			Kilometers 
 
EphemerisTimePosVel 
 
       0.00000000    7114.60687824    -795.28746316       0.04167740  0.042883701  0.466924017  7.448674206
 END Ephemeris 
